[
    {
        "Altitude(m)": 703071.2144370523,
        "Argument of Periapsis(deg)": 0.011390121186627068,
        "Eccentricity": 0.0,
        "Inclination(deg)": 45.0,
        "Latitude(deg)": 3.364877355512059,
        "Longitude(deg)": 170.8736129422692,
        "Mean Anomaly(deg)": 175.16961664748086,
        "RAAN(deg)": 94.9892480585418,
        "Satellite Name": "Constellation 1 428",
        "Satellite Number": 428,
        "Semi-Major Axis(m)": 7083131.272910544,
        "Time(s)": 190
    },
    {
        "Altitude(m)": 703075.2110542478,
        "Argument of Periapsis(deg)": 0.011450069192872472,
        "Eccentricity": 0.0,
        "Inclination(deg)": 45.0,
        "Latitude(deg)": 3.3217311654684005,
        "Longitude(deg)": 170.91251175752572,
        "Mean Anomaly(deg)": 175.23031778773077,
        "RAAN(deg)": 94.98919146937624,
        "Satellite Name": "Constellation 1 428",
        "Satellite Number": 428,
        "Semi-Major Axis(m)": 7083131.272910544,
        "Time(s)": 191
    },
    {
        "Altitude(m)": 703079.228526827,
        "Argument of Periapsis(deg)": 0.01151001719911788,
        "Eccentricity": 0.0,
        "Inclination(deg)": 45.0,
        "Latitude(deg)": 3.2785831188028056,
        "Longitude(deg)": 170.95140678115476,
        "Mean Anomaly(deg)": 175.29101892798062,
        "RAAN(deg)": 94.98913488021067,
        "Satellite Name": "Constellation 1 428",
        "Satellite Number": 428,
        "Semi-Major Axis(m)": 7083131.272910544,
        "Time(s)": 192
    },
    {
        "Altitude(m)": 703083.2668555414,
        "Argument of Periapsis(deg)": 0.011569965205363285,
        "Eccentricity": 0.0,
        "Inclination(deg)": 45.0,
        "Latitude(deg)": 3.235433240741154,
        "Longitude(deg)": 170.99029789370124,
        "Mean Anomaly(deg)": 175.3517200682306,
        "RAAN(deg)": 94.9890782910451,
        "Satellite Name": "Constellation 1 428",
        "Satellite Number": 428,
        "Semi-Major Axis(m)": 7083131.272910544,
        "Time(s)": 193
    },
    {
        "Altitude(m)": 703087.3260410366,
        "Argument of Periapsis(deg)": 0.01162991321160869,
        "Eccentricity": 0.0,
        "Inclination(deg)": 45.0,
        "Latitude(deg)": 3.1922815565013187,
        "Longitude(deg)": 171.02918547999275,
        "Mean Anomaly(deg)": 175.41242120848042,
        "RAAN(deg)": 94.98902170187952,
        "Satellite Name": "Constellation 1 428",
        "Satellite Number": 428,
        "Semi-Major Axis(m)": 7083131.272910544,
        "Time(s)": 194
    },
    {
        "Altitude(m)": 703091.4060838753,
        "Argument of Periapsis(deg)": 0.011689861217854095,
        "Eccentricity": 0.0,
        "Inclination(deg)": 45.0,
        "Latitude(deg)": 3.1491280912946435,
        "Longitude(deg)": 171.06806942055732,
        "Mean Anomaly(deg)": 175.47312234873033,
        "RAAN(deg)": 94.98896511271396,
        "Satellite Name": "Constellation 1 428",
        "Satellite Number": 428,
        "Semi-Major Axis(m)": 7083131.272910544,
        "Time(s)": 195
    },
    {
        "Altitude(m)": 703095.5069845151,
        "Argument of Periapsis(deg)": 0.0117498092240995,
        "Eccentricity": 0.0,
        "Inclination(deg)": 45.0,
        "Latitude(deg)": 3.105972870325272,
        "Longitude(deg)": 171.10694976401172,
        "Mean Anomaly(deg)": 175.53382348898023,
        "RAAN(deg)": 94.98890852354837,
        "Satellite Name": "Constellation 1 428",
        "Satellite Number": 428,
        "Semi-Major Axis(m)": 7083131.272910544,
        "Time(s)": 196
    },
    {
        "Altitude(m)": 703099.6287433335,
        "Argument of Periapsis(deg)": 0.011809757230344905,
        "Eccentricity": 0.0,
        "Inclination(deg)": 45.0,
        "Latitude(deg)": 3.0628159187904758,
        "Longitude(deg)": 171.14582655896436,
        "Mean Anomaly(deg)": 175.59452462923016,
        "RAAN(deg)": 94.98885193438282,
        "Satellite Name": "Constellation 1 428",
        "Satellite Number": 428,
        "Semi-Major Axis(m)": 7083131.272910544,
        "Time(s)": 197
    },
    {
        "Altitude(m)": 703103.7713606041,
        "Argument of Periapsis(deg)": 0.011869705236590313,
        "Eccentricity": 0.0,
        "Inclination(deg)": 45.0,
        "Latitude(deg)": 3.0196572618805697,
        "Longitude(deg)": 171.18469985401558,
        "Mean Anomaly(deg)": 175.65522576948,
        "RAAN(deg)": 94.98879534521726,
        "Satellite Name": "Constellation 1 428",
        "Satellite Number": 428,
        "Semi-Major Axis(m)": 7083131.272910544,
        "Time(s)": 198
    },
    {
        "Altitude(m)": 703107.9348365187,
        "Argument of Periapsis(deg)": 0.011929653242835719,
        "Eccentricity": 0.0,
        "Inclination(deg)": 45.0,
        "Latitude(deg)": 2.9764969247789823,
        "Longitude(deg)": 171.22356969775782,
        "Mean Anomaly(deg)": 175.71592690972992,
        "RAAN(deg)": 94.98873875605167,
        "Satellite Name": "Constellation 1 428",
        "Satellite Number": 428,
        "Semi-Major Axis(m)": 7083131.272910544,
        "Time(s)": 199
    }
]